CCSDS_OMM_VERS = 2.0
CREATION_DATE  = 
ORIGINATOR     = 

OBJECT_NAME    = ZK-1A R/B
OBJECT_ID      = 2025-292K
CENTER_NAME    = EARTH
REF_FRAME      = TEME
TIME_SYSTEM    = UTC
MEAN_ELEMENT_THEORY = SGP/SGP4

EPOCH          = 2025-12-27T18:17:30.768288
MEAN_MOTION    = 15.59424984
ECCENTRICITY   = .0202963
INCLINATION    = 97.7194
RA_OF_ASC_NODE = 75.7924
ARG_OF_PERICENTER = 310.4008
MEAN_ANOMALY   = 47.9686

EPHEMERIS_TYPE = 0
CLASSIFICATION_TYPE = U
NORAD_CAT_ID   = 67002
ELEMENT_SET_NO = 999
REV_AT_EPOCH   = 273
BSTAR          = .77101E-3
MEAN_MOTION_DOT = .169736E-2
MEAN_MOTION_DDOT = .99869E-5

CCSDS_OMM_VERS = 2.0
CREATION_DATE  = 
ORIGINATOR     = 

OBJECT_NAME    = STARLINK-35660
OBJECT_ID      = 2025-293A
CENTER_NAME    = EARTH
REF_FRAME      = TEME
TIME_SYSTEM    = UTC
MEAN_ELEMENT_THEORY = SGP/SGP4

EPOCH          = 2025-12-27T20:00:03.000384
MEAN_MOTION    = 15.68429288
ECCENTRICITY   = .0003263
INCLINATION    = 69.9993
RA_OF_ASC_NODE = 280.2993
ARG_OF_PERICENTER = 263.5761
MEAN_ANOMALY   = 262.4117

EPHEMERIS_TYPE = 0
CLASSIFICATION_TYPE = U
NORAD_CAT_ID   = 67003
ELEMENT_SET_NO = 999
REV_AT_EPOCH   = 259
BSTAR          = -.16626E-1
MEAN_MOTION_DOT = -.1663491E-1
MEAN_MOTION_DDOT = 0

CCSDS_OMM_VERS = 2.0
CREATION_DATE  = 
ORIGINATOR     = 

OBJECT_NAME    = STARLINK-35913
OBJECT_ID      = 2025-293B
CENTER_NAME    = EARTH
REF_FRAME      = TEME
TIME_SYSTEM    = UTC
MEAN_ELEMENT_THEORY = SGP/SGP4

EPOCH          = 2025-12-27T20:00:03.000384
MEAN_MOTION    = 15.68419875
ECCENTRICITY   = .0003262
INCLINATION    = 69.9993
RA_OF_ASC_NODE = 280.2967
ARG_OF_PERICENTER = 263.9268
MEAN_ANOMALY   = 264.1417

EPHEMERIS_TYPE = 0
CLASSIFICATION_TYPE = U
NORAD_CAT_ID   = 67004
ELEMENT_SET_NO = 999
REV_AT_EPOCH   = 259
BSTAR          = -.16652E-1
MEAN_MOTION_DOT = -.1665272E-1
MEAN_MOTION_DDOT = 0

CCSDS_OMM_VERS = 2.0
CREATION_DATE  = 
ORIGINATOR     = 

OBJECT_NAME    = STARLINK-36148
OBJECT_ID      = 2025-293C
CENTER_NAME    = EARTH
REF_FRAME      = TEME
TIME_SYSTEM    = UTC
MEAN_ELEMENT_THEORY = SGP/SGP4

EPOCH          = 2025-12-27T20:00:03.000384
MEAN_MOTION    = 15.68407168
ECCENTRICITY   = .0003354
INCLINATION    = 69.9996
RA_OF_ASC_NODE = 280.2947
ARG_OF_PERICENTER = 264.1350
MEAN_ANOMALY   = 266.0715

EPHEMERIS_TYPE = 0
CLASSIFICATION_TYPE = U
NORAD_CAT_ID   = 67005
ELEMENT_SET_NO = 999
REV_AT_EPOCH   = 259
BSTAR          = -.16681E-1
MEAN_MOTION_DOT = -.1667134E-1
MEAN_MOTION_DDOT = 0

CCSDS_OMM_VERS = 2.0
CREATION_DATE  = 
ORIGINATOR     = 

OBJECT_NAME    = STARLINK-36156
OBJECT_ID      = 2025-293D
CENTER_NAME    = EARTH
REF_FRAME      = TEME
TIME_SYSTEM    = UTC
MEAN_ELEMENT_THEORY = SGP/SGP4

EPOCH          = 2025-12-27T20:00:03.000384
MEAN_MOTION    = 15.68355605
ECCENTRICITY   = .0003481
INCLINATION    = 69.9996
RA_OF_ASC_NODE = 280.2886
ARG_OF_PERICENTER = 264.6244
MEAN_ANOMALY   = 270.2130

EPHEMERIS_TYPE = 0
CLASSIFICATION_TYPE = U
NORAD_CAT_ID   = 67006
ELEMENT_SET_NO = 999
REV_AT_EPOCH   = 259
BSTAR          = -.16691E-1
MEAN_MOTION_DOT = -.1664962E-1
MEAN_MOTION_DDOT = 0

CCSDS_OMM_VERS = 2.0
CREATION_DATE  = 
ORIGINATOR     = 

OBJECT_NAME    = STARLINK-36123
OBJECT_ID      = 2025-293E
CENTER_NAME    = EARTH
REF_FRAME      = TEME
TIME_SYSTEM    = UTC
MEAN_ELEMENT_THEORY = SGP/SGP4

EPOCH          = 2025-12-27T20:00:03.000384
MEAN_MOTION    = 15.68372569
ECCENTRICITY   = .0003378
INCLINATION    = 69.9994
RA_OF_ASC_NODE = 280.2909
ARG_OF_PERICENTER = 263.3467
MEAN_ANOMALY   = 269.2875

EPHEMERIS_TYPE = 0
CLASSIFICATION_TYPE = U
NORAD_CAT_ID   = 67007
ELEMENT_SET_NO = 999
REV_AT_EPOCH   = 259
BSTAR          = -.16671E-1
MEAN_MOTION_DOT = -.1664157E-1
MEAN_MOTION_DDOT = 0

CCSDS_OMM_VERS = 2.0
CREATION_DATE  = 
ORIGINATOR     = 

OBJECT_NAME    = STARLINK-36163
OBJECT_ID      = 2025-293F
CENTER_NAME    = EARTH
REF_FRAME      = TEME
TIME_SYSTEM    = UTC
MEAN_ELEMENT_THEORY = SGP/SGP4

EPOCH          = 2025-12-27T20:00:03.000384
MEAN_MOTION    = 15.68315061
ECCENTRICITY   = .0003285
INCLINATION    = 69.9995
RA_OF_ASC_NODE = 280.2863
ARG_OF_PERICENTER = 264.1978
MEAN_ANOMALY   = 273.1751

EPHEMERIS_TYPE = 0
CLASSIFICATION_TYPE = U
NORAD_CAT_ID   = 67008
ELEMENT_SET_NO = 999
REV_AT_EPOCH   = 259
BSTAR          = -.16706E-1
MEAN_MOTION_DOT = -.1663648E-1
MEAN_MOTION_DDOT = 0

CCSDS_OMM_VERS = 2.0
CREATION_DATE  = 
ORIGINATOR     = 

OBJECT_NAME    = STARLINK-36118
OBJECT_ID      = 2025-293G
CENTER_NAME    = EARTH
REF_FRAME      = TEME
TIME_SYSTEM    = UTC
MEAN_ELEMENT_THEORY = SGP/SGP4

EPOCH          = 2025-12-27T20:00:03.000384
MEAN_MOTION    = 15.68296007
ECCENTRICITY   = .0003547
INCLINATION    = 69.9995
RA_OF_ASC_NODE = 280.2827
ARG_OF_PERICENTER = 265.8852
MEAN_ANOMALY   = 273.7704

EPHEMERIS_TYPE = 0
CLASSIFICATION_TYPE = U
NORAD_CAT_ID   = 67009
ELEMENT_SET_NO = 999
REV_AT_EPOCH   = 253
BSTAR          = -.16776E-1
MEAN_MOTION_DOT = -.1668893E-1
MEAN_MOTION_DDOT = 0

CCSDS_OMM_VERS = 2.0
CREATION_DATE  = 
ORIGINATOR     = 

OBJECT_NAME    = STARLINK-36189
OBJECT_ID      = 2025-293H
CENTER_NAME    = EARTH
REF_FRAME      = TEME
TIME_SYSTEM    = UTC
MEAN_ELEMENT_THEORY = SGP/SGP4

EPOCH          = 2025-12-27T20:00:03.000384
MEAN_MOTION    = 15.68260564
ECCENTRICITY   = .0003324
INCLINATION    = 69.9994
RA_OF_ASC_NODE = 280.2774
ARG_OF_PERICENTER = 261.4060
MEAN_ANOMALY   = 282.5664

EPHEMERIS_TYPE = 0
CLASSIFICATION_TYPE = U
NORAD_CAT_ID   = 67010
ELEMENT_SET_NO = 999
REV_AT_EPOCH   = 259
BSTAR          = -.16696E-1
MEAN_MOTION_DOT = -.165951E-1
MEAN_MOTION_DDOT = 0

CCSDS_OMM_VERS = 2.0
CREATION_DATE  = 
ORIGINATOR     = 

OBJECT_NAME    = STARLINK-36167
OBJECT_ID      = 2025-293J
CENTER_NAME    = EARTH
REF_FRAME      = TEME
TIME_SYSTEM    = UTC
MEAN_ELEMENT_THEORY = SGP/SGP4

EPOCH          = 2025-12-27T20:00:03.000384
MEAN_MOTION    = 15.68290323
ECCENTRICITY   = .0003403
INCLINATION    = 69.9992
RA_OF_ASC_NODE = 280.2796
ARG_OF_PERICENTER = 262.5606
MEAN_ANOMALY   = 279.1113

EPHEMERIS_TYPE = 0
CLASSIFICATION_TYPE = U
NORAD_CAT_ID   = 67011
ELEMENT_SET_NO = 999
REV_AT_EPOCH   = 253
BSTAR          = -.16782E-1
MEAN_MOTION_DOT = -.1668929E-1
MEAN_MOTION_DDOT = 0

CCSDS_OMM_VERS = 2.0
CREATION_DATE  = 
ORIGINATOR     = 

OBJECT_NAME    = STARLINK-36175
OBJECT_ID      = 2025-293K
CENTER_NAME    = EARTH
REF_FRAME      = TEME
TIME_SYSTEM    = UTC
MEAN_ELEMENT_THEORY = SGP/SGP4

EPOCH          = 2025-12-27T20:00:03.000384
MEAN_MOTION    = 15.68255608
ECCENTRICITY   = .0003401
INCLINATION    = 69.9993
RA_OF_ASC_NODE = 280.2747
ARG_OF_PERICENTER = 263.2053
MEAN_ANOMALY   = 282.8484

EPHEMERIS_TYPE = 0
CLASSIFICATION_TYPE = U
NORAD_CAT_ID   = 67012
ELEMENT_SET_NO = 999
REV_AT_EPOCH   = 253
BSTAR          = -.16802E-1
MEAN_MOTION_DOT = -.1668627E-1
MEAN_MOTION_DDOT = 0

CCSDS_OMM_VERS = 2.0
CREATION_DATE  = 
ORIGINATOR     = 

OBJECT_NAME    = STARLINK-35856
OBJECT_ID      = 2025-293L
CENTER_NAME    = EARTH
REF_FRAME      = TEME
TIME_SYSTEM    = UTC
MEAN_ELEMENT_THEORY = SGP/SGP4

EPOCH          = 2025-12-27T20:00:03.000384
MEAN_MOTION    = 15.68228972
ECCENTRICITY   = .0003282
INCLINATION    = 69.9994
RA_OF_ASC_NODE = 280.2721
ARG_OF_PERICENTER = 263.8436
MEAN_ANOMALY   = 284.4931

EPHEMERIS_TYPE = 0
CLASSIFICATION_TYPE = U
NORAD_CAT_ID   = 67013
ELEMENT_SET_NO = 999
REV_AT_EPOCH   = 253
BSTAR          = -.16771E-1
MEAN_MOTION_DOT = -.1664159E-1
MEAN_MOTION_DDOT = 0

