ZK-1A R/B               
1 67002U 25292K   25361.76216167  .00169736  99869-5  77101-3 0  9995
2 67002  97.7194  75.7924 0202963 310.4008  47.9686 15.59424984  2739
STARLINK-35660          
1 67003U 25293A   25361.83336806 -.01663491  00000+0 -16626-1 0  9994
2 67003  69.9993 280.2993 0003263 263.5761 262.4117 15.68429288  2592
STARLINK-35913          
1 67004U 25293B   25361.83336806 -.01665272  00000+0 -16652-1 0  9993
2 67004  69.9993 280.2967 0003262 263.9268 264.1417 15.68419875  2592
STARLINK-36148          
1 67005U 25293C   25361.83336806 -.01667134  00000+0 -16681-1 0  9995
2 67005  69.9996 280.2947 0003354 264.1350 266.0715 15.68407168  2595
STARLINK-36156          
1 67006U 25293D   25361.83336806 -.01664962  00000+0 -16691-1 0  9993
2 67006  69.9996 280.2886 0003481 264.6244 270.2130 15.68355605  2592
STARLINK-36123          
1 67007U 25293E   25361.83336806 -.01664157  00000+0 -16671-1 0  9998
2 67007  69.9994 280.2909 0003378 263.3467 269.2875 15.68372569  2597
STARLINK-36163          
1 67008U 25293F   25361.83336806 -.01663648  00000+0 -16706-1 0  9992
2 67008  69.9995 280.2863 0003285 264.1978 273.1751 15.68315061  2592
STARLINK-36118          
1 67009U 25293G   25361.83336806 -.01668893  00000+0 -16776-1 0  9997
2 67009  69.9995 280.2827 0003547 265.8852 273.7704 15.68296007  2539
STARLINK-36189          
1 67010U 25293H   25361.83336806 -.01659510  00000+0 -16696-1 0  9996
2 67010  69.9994 280.2774 0003324 261.4060 282.5664 15.68260564  2595
STARLINK-36167          
1 67011U 25293J   25361.83336806 -.01668929  00000+0 -16782-1 0  9997
2 67011  69.9992 280.2796 0003403 262.5606 279.1113 15.68290323  2535
STARLINK-36175          
1 67012U 25293K   25361.83336806 -.01668627  00000+0 -16802-1 0  9996
2 67012  69.9993 280.2747 0003401 263.2053 282.8484 15.68255608  2534
STARLINK-35856          
1 67013U 25293L   25361.83336806 -.01664159  00000+0 -16771-1 0  9998
2 67013  69.9994 280.2721 0003282 263.8436 284.4931 15.68228972  2535
